stk.v.4.3 

BEGIN Ephemeris 
 
NumberOfEphemerisPoints		146 
ScenarioEpoch	    3 Sep 2020 20:28:27.658544183 
InterpolationMethod		Lagrange 
InterpolationOrder		5 
CentralBody				Earth 
CoordinateSystem			TEME 
CoordinateSystemEpoch	  3 Sep 2020 20:28:27.658544183 
DistanceUnit			Kilometers 
 
EphemerisTimePosVel 
 
       0.00000000   -7090.09951190    -988.28769147       0.03737822  0.074026070 -0.462176788  7.449006407
 END Ephemeris 
